{"type": "FeatureCollection", "features": [ {"type": "Feature", "properties": {"norad_id": 66574, "name": "STARLINK-35812", "group": "last-30-days", "lat": -4.4443105235499205, "lon": 33.65710592578504, "alt_km": 460.3504814916387, "timestamp": "2025-12-26T21:25:51.731483+00:00", "meta": {"OBJECT_NAME": "STARLINK-35812", "OBJECT_ID": "2025-268T", "EPOCH": "2025-12-26T14:00:04.000032", "MEAN_MOTION": 15.3652739, "ECCENTRICITY": 0.00014206, "INCLINATION": 43.0004, "RA_OF_ASC_NODE": 40.2128, "ARG_OF_PERICENTER": 285.4313, "MEAN_ANOMALY": 154.3859, "EPHEMERIS_TYPE": 0, "CLASSIFICATION_TYPE": "U", "NORAD_CAT_ID": 66574, "ELEMENT_SET_NO": 999, "REV_AT_EPOCH": 601, "BSTAR": -0.060161525, "MEAN_MOTION_DOT": -0.01955169, "MEAN_MOTION_DDOT": 0}, "tle": {"line1": "1 66574U 25268T   25360.58337963 -.01955169  00000+0 -60162-1 0  9994", "line2": "2 66574  43.0004  40.2128 0001420 285.4313 154.3859 15.36527390  6014"}}, "geometry": {"type": "Point", "coordinates": [33.65710592578504, -4.4443105235499205]}}, {"type": "Feature", "properties": {"norad_id": 66575, "name": "STARLINK-35810", "group": "last-30-days", "lat": 6.356797012819531, "lon": 45.26836931089773, "alt_km": 456.6626455382193, "timestamp": "2025-12-26T21:25:51.731508+00:00", "meta": {"OBJECT_NAME": "STARLINK-35810", "OBJECT_ID": "2025-268U", "EPOCH": "2025-12-26T14:00:04.000032", "MEAN_MOTION": 15.37362069, "ECCENTRICITY": 0.00015688, "INCLINATION": 43.0012, "RA_OF_ASC_NODE": 40.176, "ARG_OF_PERICENTER": 287.131, "MEAN_ANOMALY": 167.6174, "EPHEMERIS_TYPE": 0, "CLASSIFICATION_TYPE": "U", "NORAD_CAT_ID": 66575, "ELEMENT_SET_NO": 999, "REV_AT_EPOCH": 601, "BSTAR": -0.058259036, "MEAN_MOTION_DOT": -0.01946772, "MEAN_MOTION_DDOT": 0}, "tle": {"line1": "1 66575U 25268U   25360.58337963 -.01946772  00000+0 -58259-1 0  9999", "line2": "2 66575  43.0012  40.1760 0001568 287.1310 167.6174 15.37362069  6012"}}, "geometry": {"type": "Point", "coordinates": [45.26836931089773, 6.356797012819531]}}, {"type": "Feature", "properties": {"norad_id": 66576, "name": "STARLINK-35814", "group": "last-30-days", "lat": 16.527005185687937, "lon": 56.93209915812268, "alt_km": 452.895170229167, "timestamp": "2025-12-26T21:25:51.731521+00:00", "meta": {"OBJECT_NAME": "STARLINK-35814", "OBJECT_ID": "2025-268V", "EPOCH": "2025-12-26T14:00:04.000032", "MEAN_MOTION": 15.38198202, "ECCENTRICITY": 0.00014703, "INCLINATION": 43.0012, "RA_OF_ASC_NODE": 40.141, "ARG_OF_PERICENTER": 290.5842, "MEAN_ANOMALY": 178.5365, "EPHEMERIS_TYPE": 0, "CLASSIFICATION_TYPE": "U", "NORAD_CAT_ID": 66576, "ELEMENT_SET_NO": 999, "REV_AT_EPOCH": 601, "BSTAR": -0.056609232, "MEAN_MOTION_DOT": -0.01944535, "MEAN_MOTION_DDOT": 0}, "tle": {"line1": "1 66576U 25268V   25360.58337963 -.01944535  00000+0 -56609-1 0  9992", "line2": "2 66576  43.0012  40.1410 0001470 290.5842 178.5365 15.38198202  6015"}}, "geometry": {"type": "Point", "coordinates": [56.93209915812268, 16.527005185687937]}}, {"type": "Feature", "properties": {"norad_id": 66577, "name": "STARLINK-35815", "group": "last-30-days", "lat": 30.690062623712297, "lon": 77.86896336699269, "alt_km": 446.7884604053006, "timestamp": "2025-12-26T21:25:51.731532+00:00", "meta": {"OBJECT_NAME": "STARLINK-35815", "OBJECT_ID": "2025-268W", "EPOCH": "2025-12-26T14:00:04.000032", "MEAN_MOTION": 15.39655492, "ECCENTRICITY": 0.00015049, "INCLINATION": 43.0008, "RA_OF_ASC_NODE": 40.0871, "ARG_OF_PERICENTER": 291.5787, "MEAN_ANOMALY": 199.7117, "EPHEMERIS_TYPE": 0, "CLASSIFICATION_TYPE": "U", "NORAD_CAT_ID": 66577, "ELEMENT_SET_NO": 999, "REV_AT_EPOCH": 607, "BSTAR": -0.054470999, "MEAN_MOTION_DOT": -0.01961543, "MEAN_MOTION_DDOT": 0}, "tle": {"line1": "1 66577U 25268W   25360.58337963 -.01961543  00000+0 -54471-1 0  9996", "line2": "2 66577  43.0008  40.0871 0001504 291.5787 199.7117 15.39655492  6074"}}, "geometry": {"type": "Point", "coordinates": [77.86896336699269, 30.690062623712297]}}, {"type": "Feature", "properties": {"norad_id": 66578, "name": "STARLINK-35743", "group": "last-30-days", "lat": 37.114487504182435, "lon": 92.5637760852258, "alt_km": 443.31742709981063, "timestamp": "2025-12-26T21:25:51.731543+00:00", "meta": {"OBJECT_NAME": "STARLINK-35743", "OBJECT_ID": "2025-268X", "EPOCH": "2025-12-26T14:00:04.000032", "MEAN_MOTION": 15.4043205, "ECCENTRICITY": 0.00010682, "INCLINATION": 43.0011, "RA_OF_ASC_NODE": 40.0542, "ARG_OF_PERICENTER": 300.2741, "MEAN_ANOMALY": 203.9128, "EPHEMERIS_TYPE": 0, "CLASSIFICATION_TYPE": "U", "NORAD_CAT_ID": 66578, "ELEMENT_SET_NO": 999, "REV_AT_EPOCH": 590, "BSTAR": -0.052195714, "MEAN_MOTION_DOT": -0.01932146, "MEAN_MOTION_DDOT": 0}, "tle": {"line1": "1 66578U 25268X   25360.58337963 -.01932146  00000+0 -52196-1 0  9996", "line2": "2 66578  43.0011  40.0542 0001068 300.2741 203.9128 15.40432050  5903"}}, "geometry": {"type": "Point", "coordinates": [92.5637760852258, 37.114487504182435]}}, {"type": "Feature", "properties": {"norad_id": 66579, "name": "STARLINK-35868", "group": "last-30-days", "lat": 41.29820898364525, "lon": 108.74844963231541, "alt_km": 440.31157098669064, "timestamp": "2025-12-26T21:25:51.731556+00:00", "meta": {"OBJECT_NAME": "STARLINK-35868", "OBJECT_ID": "2025-268Y", "EPOCH": "2025-12-26T14:00:04.000032", "MEAN_MOTION": 15.41345291, "ECCENTRICITY": 0.000119, "INCLINATION": 43.0005, "RA_OF_ASC_NODE": 40.0242, "ARG_OF_PERICENTER": 302.0079, "MEAN_ANOMALY": 214.3896, "EPHEMERIS_TYPE": 0, "CLASSIFICATION_TYPE": "U", "NORAD_CAT_ID": 66579, "ELEMENT_SET_NO": 999, "REV_AT_EPOCH": 595, "BSTAR": -0.052593343, "MEAN_MOTION_DOT": -0.01999297, "MEAN_MOTION_DDOT": 0}, "tle": {"line1": "1 66579U 25268Y   25360.58337963 -.01999297  00000+0 -52593-1 0  9998", "line2": "2 66579  43.0005  40.0242 0001190 302.0079 214.3896 15.41345291  5958"}}, "geometry": {"type": "Point", "coordinates": [108.74844963231541, 41.29820898364525]}}, {"type": "Feature", "properties": {"norad_id": 66580, "name": "STARLINK-35872", "group": "last-30-days", "lat": 42.95186438318956, "lon": 125.68036355484163, "alt_km": 437.69711059586007, "timestamp": "2025-12-26T21:25:51.731567+00:00", "meta": {"OBJECT_NAME": "STARLINK-35872", "OBJECT_ID": "2025-268Z", "EPOCH": "2025-12-26T14:00:04.000032", "MEAN_MOTION": 15.42190101, "ECCENTRICITY": 0.00010664, "INCLINATION": 43, "RA_OF_ASC_NODE": 39.9967, "ARG_OF_PERICENTER": 298.4933, "MEAN_ANOMALY": 229.6164, "EPHEMERIS_TYPE": 0, "CLASSIFICATION_TYPE": "U", "NORAD_CAT_ID": 66580, "ELEMENT_SET_NO": 999, "REV_AT_EPOCH": 607, "BSTAR": -0.051374664, "MEAN_MOTION_DOT": -0.02008288, "MEAN_MOTION_DDOT": 0}, "tle": {"line1": "1 66580U 25268Z   25360.58337963 -.02008288  00000+0 -51375-1 0  9999", "line2": "2 66580  43.0000  39.9967 0001066 298.4933 229.6164 15.42190101  6075"}}, "geometry": {"type": "Point", "coordinates": [125.68036355484163, 42.95186438318956]}}, {"type": "Feature", "properties": {"norad_id": 66581, "name": "STARLINK-35744", "group": "last-30-days", "lat": 42.13403619889232, "lon": 142.0663216309595, "alt_km": 435.458277307539, "timestamp": "2025-12-26T21:25:51.731578+00:00", "meta": {"OBJECT_NAME": "STARLINK-35744", "OBJECT_ID": "2025-268AA", "EPOCH": "2025-12-26T14:00:04.000032", "MEAN_MOTION": 15.43024195, "ECCENTRICITY": 9.78e-05, "INCLINATION": 43.001, "RA_OF_ASC_NODE": 39.9684, "ARG_OF_PERICENTER": 293.0225, "MEAN_ANOMALY": 246.2474, "EPHEMERIS_TYPE": 0, "CLASSIFICATION_TYPE": "U", "NORAD_CAT_ID": 66581, "ELEMENT_SET_NO": 999, "REV_AT_EPOCH": 601, "BSTAR": -0.049866775, "MEAN_MOTION_DOT": -0.02005609, "MEAN_MOTION_DDOT": 0}, "tle": {"line1": "1 66581U 25268AA  25360.58337963 -.02005609  00000+0 -49867-1 0  9997", "line2": "2 66581  43.0010  39.9684 0000978 293.0225 246.2474 15.43024195  6012"}}, "geometry": {"type": "Point", "coordinates": [142.0663216309595, 42.13403619889232]}}, {"type": "Feature", "properties": {"norad_id": 66582, "name": "STARLINK-35746", "group": "last-30-days", "lat": 36.81034906740809, "lon": 164.70875053535957, "alt_km": 432.0021990253699, "timestamp": "2025-12-26T21:25:51.731589+00:00", "meta": {"OBJECT_NAME": "STARLINK-35746", "OBJECT_ID": "2025-268AB", "EPOCH": "2025-12-26T14:00:04.000032", "MEAN_MOTION": 15.44459454, "ECCENTRICITY": 0.00010288, "INCLINATION": 43.0006, "RA_OF_ASC_NODE": 39.9277, "ARG_OF_PERICENTER": 288.845, "MEAN_ANOMALY": 267.0216, "EPHEMERIS_TYPE": 0, "CLASSIFICATION_TYPE": "U", "NORAD_CAT_ID": 66582, "ELEMENT_SET_NO": 999, "REV_AT_EPOCH": 601, "BSTAR": -0.046295522, "MEAN_MOTION_DOT": -0.01961016, "MEAN_MOTION_DDOT": 0}, "tle": {"line1": "1 66582U 25268AB  25360.58337963 -.01961016  00000+0 -46296-1 0  9993", "line2": "2 66582  43.0006  39.9277 0001028 288.8450 267.0216 15.44459454  6011"}}, "geometry": {"type": "Point", "coordinates": [164.70875053535957, 36.81034906740809]}}, {"type": "Feature", "properties": {"norad_id": 66583, "name": "STARLINK-35941", "group": "last-30-days", "lat": 31.961638748658995, "lon": 176.07519246012015, "alt_km": 430.1967260092106, "timestamp": "2025-12-26T21:25:51.731599+00:00", "meta": {"OBJECT_NAME": "STARLINK-35941", "OBJECT_ID": "2025-268AC", "EPOCH": "2025-12-26T14:00:04.000032", "MEAN_MOTION": 15.45287017, "ECCENTRICITY": 9.889e-05, "INCLINATION": 43.0001, "RA_OF_ASC_NODE": 39.9038, "ARG_OF_PERICENTER": 292.5139, "MEAN_ANOMALY": 272.9791, "EPHEMERIS_TYPE": 0, "CLASSIFICATION_TYPE": "U", "NORAD_CAT_ID": 66583, "ELEMENT_SET_NO": 999, "REV_AT_EPOCH": 607, "BSTAR": -0.044453357, "MEAN_MOTION_DOT": -0.01939926, "MEAN_MOTION_DDOT": 0}, "tle": {"line1": "1 66583U 25268AC  25360.58337963 -.01939926  00000+0 -44453-1 0  9992", "line2": "2 66583  43.0001  39.9038 0000988 292.5139 272.9791 15.45287017  6076"}}, "geometry": {"type": "Point", "coordinates": [176.07519246012015, 31.961638748658995]}}]}